{
  "type": "FeatureCollection",
  "features": [
    {
      "type": "Feature",
      "properties": {
        "norad_id": 43823,
        "name": "GEO-KOMPSAT-2A",
        "group": "weather",
        "lat": -0.01208391736092756,
        "lon": 71.25140171964054,
        "alt_km": 35786.921036314525,
        "timestamp": "2025-12-10T14:53:36.768865+00:00",
        "meta_object_name": "GEO-KOMPSAT-2A",
        "meta_object_id": "2018-100A",
        "meta_epoch": "2025-12-09T23:29:38.510880",
        "meta_mean_motion": 1.00269688,
        "meta_eccentricity": 1.166e-05,
        "meta_inclination": 0.0417,
        "meta_ra_of_asc_node": 144.825,
        "meta_arg_of_pericenter": 34.8694,
        "meta_mean_anomaly": 19.9414,
        "meta_ephemeris_type": 0,
        "meta_classification_type": "U",
        "meta_norad_cat_id": 43823,
        "meta_element_set_no": 999,
        "meta_rev_at_epoch": 2573,
        "meta_bstar": 0,
        "meta_mean_motion_dot": -3.41e-06,
        "meta_mean_motion_ddot": 0,
        "tle_line1": "1 43823U 18100A   25343.97891795 -.00000341  00000+0  00000+0 0  9999",
        "tle_line2": "2 43823   0.0417 144.8250 0000116  34.8694  19.9414  1.00269688 25735"
      },
      "geometry": {
        "type": "Point",
        "coordinates": [
          71.25140171964054,
          -0.01208391736092756
        ]
      }
    },
    {
      "type": "Feature",
      "properties": {
        "norad_id": 44387,
        "name": "METEOR-M2 2",
        "group": "weather",
        "lat": -44.24709567598178,
        "lon": -26.900268560804225,
        "alt_km": 818.317546159692,
        "timestamp": "2025-12-10T14:53:36.768876+00:00",
        "meta_object_name": "METEOR-M2 2",
        "meta_object_id": "2019-038A",
        "meta_epoch": "2025-12-10T06:40:27.009696",
        "meta_mean_motion": 14.24290971,
        "meta_eccentricity": 0.00011462,
        "meta_inclination": 98.8972,
        "meta_ra_of_asc_node": 323.9765,
        "meta_arg_of_pericenter": 151.5718,
        "meta_mean_anomaly": 208.5523,
        "meta_ephemeris_type": 0,
        "meta_classification_type": "U",
        "meta_norad_cat_id": 44387,
        "meta_element_set_no": 999,
        "meta_rev_at_epoch": 33440,
        "meta_bstar": 0.00028990125,
        "meta_mean_motion_dot": 6.24e-06,
        "meta_mean_motion_ddot": 0,
        "tle_line1": "1 44387U 19038A   25344.27809039  .00000624  00000+0  28990-3 0  9995",
        "tle_line2": "2 44387  98.8972 323.9765 0001146 151.5718 208.5523 14.24290971334404"
      },
      "geometry": {
        "type": "Point",
        "coordinates": [
          -26.900268560804225,
          -44.24709567598178
        ]
      }
    },
    {
      "type": "Feature",
      "properties": {
        "norad_id": 47719,
        "name": "ARKTIKA-M 1",
        "group": "weather",
        "lat": 35.72299458127124,
        "lon": 105.64039874472279,
        "alt_km": 18230.764312544736,
        "timestamp": "2025-12-10T14:53:36.768887+00:00",
        "meta_object_name": "ARKTIKA-M 1",
        "meta_object_id": "2021-016A",
        "meta_epoch": "2025-12-09T14:03:23.859648",
        "meta_mean_motion": 2.00631311,
        "meta_eccentricity": 0.7202538,
        "meta_inclination": 63.1769,
        "meta_ra_of_asc_node": 84.4506,
        "meta_arg_of_pericenter": 269.1116,
        "meta_mean_anomaly": 15.6235,
        "meta_ephemeris_type": 0,
        "meta_classification_type": "U",
        "meta_norad_cat_id": 47719,
        "meta_element_set_no": 999,
        "meta_rev_at_epoch": 3498,
        "meta_bstar": 0,
        "meta_mean_motion_dot": -6.1e-07,
        "meta_mean_motion_ddot": 0,
        "tle_line1": "1 47719U 21016A   25343.58569282 -.00000061  00000+0  00000+0 0  9996",
        "tle_line2": "2 47719  63.1769  84.4506 7202538 269.1116  15.6235  2.00631311 34985"
      },
      "geometry": {
        "type": "Point",
        "coordinates": [
          105.64039874472279,
          35.72299458127124
        ]
      }
    },
    {
      "type": "Feature",
      "properties": {
        "norad_id": 49008,
        "name": "FENGYUN 3E",
        "group": "weather",
        "lat": -51.15392259464573,
        "lon": -3.8118510241498424,
        "alt_km": 832.2482535811923,
        "timestamp": "2025-12-10T14:53:36.768898+00:00",
        "meta_object_name": "FENGYUN 3E",
        "meta_object_id": "2021-062A",
        "meta_epoch": "2025-12-10T06:40:54.574752",
        "meta_mean_motion": 14.19880024,
        "meta_eccentricity": 5.973e-05,
        "meta_inclination": 98.7474,
        "meta_ra_of_asc_node": 344.8284,
        "meta_arg_of_pericenter": 287.5371,
        "meta_mean_anomaly": 72.574,
        "meta_ephemeris_type": 0,
        "meta_classification_type": "U",
        "meta_norad_cat_id": 49008,
        "meta_element_set_no": 999,
        "meta_rev_at_epoch": 22977,
        "meta_bstar": 0.00017902844,
        "meta_mean_motion_dot": 3.36e-06,
        "meta_mean_motion_ddot": 0,
        "tle_line1": "1 49008U 21062A   25344.27840943  .00000336  00000+0  17903-3 0  9991",
        "tle_line2": "2 49008  98.7474 344.8284 0000597 287.5371  72.5740 14.19880024229778"
      },
      "geometry": {
        "type": "Point",
        "coordinates": [
          -3.8118510241498424,
          -51.15392259464573
        ]
      }
    },
    {
      "type": "Feature",
      "properties": {
        "norad_id": 51850,
        "name": "GOES 18",
        "group": "weather",
        "lat": -0.012359388380181885,
        "lon": 165.98615162248757,
        "alt_km": 35788.3760925861,
        "timestamp": "2025-12-10T14:53:36.768908+00:00",
        "meta_object_name": "GOES 18",
        "meta_object_id": "2022-021A",
        "meta_epoch": "2025-12-10T06:59:25.630368",
        "meta_mean_motion": 1.00271523,
        "meta_eccentricity": 7.091e-05,
        "meta_inclination": 0.0324,
        "meta_ra_of_asc_node": 187.0888,
        "meta_arg_of_pericenter": 117.9589,
        "meta_mean_anomaly": 102.0763,
        "meta_ephemeris_type": 0,
        "meta_classification_type": "U",
        "meta_norad_cat_id": 51850,
        "meta_element_set_no": 999,
        "meta_rev_at_epoch": 469,
        "meta_bstar": 0,
        "meta_mean_motion_dot": 1e-06,
        "meta_mean_motion_ddot": 0,
        "tle_line1": "1 51850U 22021A   25344.29126887  .00000100  00000+0  00000+0 0  9996",
        "tle_line2": "2 51850   0.0324 187.0888 0000709 117.9589 102.0763  1.00271523  4695"
      },
      "geometry": {
        "type": "Point",
        "coordinates": [
          165.98615162248757,
          -0.012359388380181885
        ]
      }
    },
    {
      "type": "Feature",
      "properties": {
        "norad_id": 54234,
        "name": "NOAA 21 (JPSS-2)",
        "group": "weather",
        "lat": -42.309324019997646,
        "lon": -70.98995785961503,
        "alt_km": 833.3767528089984,
        "timestamp": "2025-12-10T14:53:36.768918+00:00",
        "meta_object_name": "NOAA 21 (JPSS-2)",
        "meta_object_id": "2022-150A",
        "meta_epoch": "2025-12-10T06:38:13.348032",
        "meta_mean_motion": 14.19523231,
        "meta_eccentricity": 0.00023108,
        "meta_inclination": 98.7459,
        "meta_ra_of_asc_node": 280.6156,
        "meta_arg_of_pericenter": 42.7919,
        "meta_mean_anomaly": 317.3436,
        "meta_ephemeris_type": 0,
        "meta_classification_type": "U",
        "meta_norad_cat_id": 54234,
        "meta_element_set_no": 999,
        "meta_rev_at_epoch": 15974,
        "meta_bstar": 0.00011309014,
        "meta_mean_motion_dot": 1.94e-06,
        "meta_mean_motion_ddot": 0,
        "tle_line1": "1 54234U 22150A   25344.27654338  .00000194  00000+0  11309-3 0  9994",
        "tle_line2": "2 54234  98.7459 280.6156 0002310  42.7919 317.3436 14.19523231159742"
      },
      "geometry": {
        "type": "Point",
        "coordinates": [
          -70.98995785961503,
          -42.309324019997646
        ]
      }
    },
    {
      "type": "Feature",
      "properties": {
        "norad_id": 54743,
        "name": "METEOSAT-12 (MTG-I1)",
        "group": "weather",
        "lat": -0.7398355737453848,
        "lon": -57.19627972389438,
        "alt_km": 35781.06977072696,
        "timestamp": "2025-12-10T14:53:36.768929+00:00",
        "meta_object_name": "METEOSAT-12 (MTG-I1)",
        "meta_object_id": "2022-170C",
        "meta_epoch": "2025-12-09T23:46:38.709984",
        "meta_mean_motion": 1.00275392,
        "meta_eccentricity": 0.00014083,
        "meta_inclination": 0.7277,
        "meta_ra_of_asc_node": 31.2079,
        "meta_arg_of_pericenter": 224.628,
        "meta_mean_anomaly": 179.5874,
        "meta_ephemeris_type": 0,
        "meta_classification_type": "U",
        "meta_norad_cat_id": 54743,
        "meta_element_set_no": 999,
        "meta_rev_at_epoch": 1108,
        "meta_bstar": 0,
        "meta_mean_motion_dot": -3e-08,
        "meta_mean_motion_ddot": 0,
        "tle_line1": "1 54743U 22170C   25343.99072581 -.00000003  00000+0  00000+0 0  9995",
        "tle_line2": "2 54743   0.7277  31.2079 0001408 224.6280 179.5874  1.00275392 11087"
      },
      "geometry": {
        "type": "Point",
        "coordinates": [
          -57.19627972389438,
          -0.7398355737453848
        ]
      }
    }
  ]
}